AMAZONIA 1
1 47699U 21015A   23083.68657856 -.00000044  10000-8  43000-4 0  9990
2 47699  98.4304 162.1097 0001247 136.2017 223.9283 14.40814394108652
CBERS 4A
1 44883U 19093E   23087.54098578  .00002943  00000+0  38100-3 0  9997
2 44883  97.8669 167.4611 0001705  77.3129 282.8275 14.81612352176856
